[
    {
      "hospitalCode": "MONROE",
      "description": "Kiyas Yoel",
      "address": "-",
      "city": "Monroe",
      "state": "NY",
      "zip": "10950",
      "area": "Upstate NY",
      "mainPhone": "541-515-5376",
      "erPhone": "-",
      "contactPerson": "-"
    },
    {
      "hospitalCode": "MONSEY",
      "desciption": "Monsey",
      "address": "-",
      "city": "Monsey",
      "state": "NY",
      "zip": "10953",
      "area": "Upstate NY",
      "mainPhone": "623-986-1296",
      "erPhone": "-",
      "contactPerson": "-"
    },
    {
      "hospitalCode": "MONTCLAIR NJ",
      "desciption": "The Field Center",
      "address": "83 Park Street",
      "city": "Montdair",
      "state": "NJ",
      "zip": "07042",
      "area": "New Jersey",
      "mainPhone": "112-863-4459",
      "erPhone": "-",
      "contactPerson": "-"
    },
    {
      "hospitalCode": "MONTEFIORE",
      "desciption": "Montefiore Medical Center (Moses Division)",
      "address": "600 East 223rd Street",
      "city": "Bronx",
      "state": "NY",
      "zip": "08057",
      "area": "Bronx",
      "mainPhone": "556-768-0098",
      "erPhone": "-",
      "contactPerson": "https://montefiorechildren"
    },
    {
      "hospitalCode": "MONTEFIORE/CHILDRENS",
      "desciption": "MOntefiore Children's Hospital",
      "address": "3415 Bainbridge Avenue",
      "city": "Bronx",
      "state": "NY",
      "zip": "0899",
      "area": "Bronx",
      "mainPhone": "565-255-7780",
      "erPhone": "-",
      "contactPerson": "-"
    },
    {
      "hospitalCode": "MT. KISCO",
      "desciption": "Mt. Kisco",
      "address": "-",
      "city": "Mt. Kisco",
      "state": "MA",
      "zip": "11554",
      "area": "Upstate NY",
      "mainPhone": "552-556-0098",
      "erPhone": "-",
      "contactPerson": "-"
    },
    {
      "hospitalCode": "MONROE",
      "desciption": "Kiyas Yoel",
      "address": "-",
      "city": "Monroe",
      "state": "NY",
      "zip": "10950",
      "area": "Upstate NY",
      "mainPhone": "541-515-5376",
      "erPhone": "-",
      "contactPerson": "-"
    },
    {
      "hospitalCode": "MONSEY",
      "desciption": "Monsey",
      "address": "-",
      "city": "Monsey",
      "state": "NY",
      "zip": "10953",
      "area": "Upstate NY",
      "mainPhone": "623-986-1296",
      "erPhone": "-",
      "contactPerson": "-"
    },
    {
      "hospitalCode": "MONTCLAIR NJ",
      "desciption": "The Field Center",
      "address": "83 Park Street",
      "city": "Montdair",
      "state": "NJ",
      "zip": "07042",
      "area": "New Jersey",
      "mainPhone": "112-863-4459",
      "erPhone": "-",
      "contactPerson": "-"
    },
    {
      "hospitalCode": "MONTEFIORE",
      "desciption": "Montefiore Medical Center (Moses Division)",
      "address": "600 East 223rd Street",
      "city": "Bronx",
      "state": "NY",
      "zip": "08057",
      "area": "Bronx",
      "mainPhone": "556-768-0098",
      "erPhone": "-",
      "contactPerson": "https://montefiorechildren"
    },
    {
      "hospitalCode": "MONTEFIORE/CHILDRENS",
      "desciption": "MOntefiore Children's Hospital",
      "address": "3415 Bainbridge Avenue",
      "city": "Bronx",
      "state": "NY",
      "zip": "0899",
      "area": "Bronx",
      "mainPhone": "565-255-7780",
      "erPhone": "-",
      "contactPerson": "-"
    },
    {
      "hospitalCode": "MT. KISCO",
      "desciption": "Mt. Kisco",
      "address": "-",
      "city": "Mt. Kisco",
      "state": "MA",
      "zip": "11554",
      "area": "Upstate NY",
      "mainPhone": "552-556-0098",
      "erPhone": "-",
      "contactPerson": "-"
    }
]